[{"OBJECT_NAME":"STARLINK-1570","OBJECT_ID":"2020-055AJ","EPOCH":"2026-03-09T12:23:38.688000","MEAN_MOTION":15.30212858,"ECCENTRICITY":0.00015402,"INCLINATION":53.1603,"RA_OF_ASC_NODE":114.7149,"ARG_OF_PERICENTER":115.7829,"MEAN_ANOMALY":244.3331,"EPHEMERIS_TYPE":0,"CLASSIFICATION_TYPE":"U","NORAD_CAT_ID":46059,"ELEMENT_SET_NO":999,"REV_AT_EPOCH":30900,"BSTAR":0.00013254178,"MEAN_MOTION_DOT":3.57e-5,"MEAN_MOTION_DDOT":0},{"OBJECT_NAME":"OBJECT H","OBJECT_ID":"2025-055H","EPOCH":"2026-03-09T23:29:50.051328","MEAN_MOTION":15.30330066,"ECCENTRICITY":0.00075967,"INCLINATION":97.636,"RA_OF_ASC_NODE":211.9572,"ARG_OF_PERICENTER":140.4354,"MEAN_ANOMALY":219.7441,"EPHEMERIS_TYPE":0,"CLASSIFICATION_TYPE":"U","NORAD_CAT_ID":63298,"ELEMENT_SET_NO":999,"REV_AT_EPOCH":5423,"BSTAR":0.0015582864,"MEAN_MOTION_DOT":0.00045901,"MEAN_MOTION_DDOT":0}]
